CBERS 4                 
1 40336U 14079A   20210.09669110 -.00000010  00000-0  11870-4 0  9997
2 40336  98.5608 281.4396 0001141  58.5566 301.5741 14.35415813295517
CZ-4B R/B               
1 40337U 14079B   20209.66641596  .00000018  00000-0  78861-5 0  9998
2 40337  98.4537  98.1457 0176696 177.8668 182.3342 14.89391777306364
